{
    "links": {
        "self": "http://www.neowsapp.com/rest/v1/neo/54016967?api_key=iIulBulltgU6a56xZRHN4H3l9WmuAYTsLGpBGhQ2"
    },
    "id": "54016967",
    "neo_reference_id": "54016967",
    "name": "(2020 JP)",
    "designation": "2020 JP",
    "nasa_jpl_url": "http://ssd.jpl.nasa.gov/sbdb.cgi?sstr=54016967",
    "absolute_magnitude_h": 20.881,
    "estimated_diameter": {
        "kilometers": {
            "estimated_diameter_min": 0.1771556373,
            "estimated_diameter_max": 0.3961320476
        },
        "meters": {
            "estimated_diameter_min": 177.155637283,
            "estimated_diameter_max": 396.132047562
        },
        "miles": {
            "estimated_diameter_min": 0.1100793755,
            "estimated_diameter_max": 0.2461449665
        },
        "feet": {
            "estimated_diameter_min": 581.2193010234,
            "estimated_diameter_max": 1299.6458669233
        }
    },
    "is_potentially_hazardous_asteroid": false,
    "close_approach_data": [
        {
            "close_approach_date": "2020-05-05",
            "close_approach_date_full": "2020-May-05 10:45",
            "epoch_date_close_approach": 1588675500000,
            "relative_velocity": {
                "kilometers_per_second": "15.6101510435",
                "kilometers_per_hour": "56196.543756726",
                "miles_per_hour": "34918.3468692834"
            },
            "miss_distance": {
                "astronomical": "0.1300946226",
                "lunar": "50.6068081914",
                "kilometers": "19461878.439413862",
                "miles": "12093050.5000488156"
            },
            "orbiting_body": "Earth"
        }
    ],
    "orbital_data": {
        "orbit_id": "8",
        "orbit_determination_date": "2020-05-18 06:41:21",
        "first_observation_date": "2020-05-04",
        "last_observation_date": "2020-05-17",
        "data_arc_in_days": 13,
        "observations_used": 57,
        "orbit_uncertainty": "8",
        "minimum_orbit_intersection": ".0935279",
        "jupiter_tisserand_invariant": "2.676",
        "epoch_osculation": "2458978.5",
        "eccentricity": ".6715088078574953",
        "semi_major_axis": "3.302287623510702",
        "inclination": "21.22455550248959",
        "ascending_node_longitude": "226.8805093200696",
        "orbital_period": "2191.900179254158",
        "perihelion_distance": "1.084772398244469",
        "perihelion_argument": "18.96411155897399",
        "aphelion_distance": "5.519802848776934",
        "perihelion_time": "2458988.980270350807",
        "mean_anomaly": "358.2787093308353",
        "mean_motion": ".1642410559601751",
        "equinox": "J2000",
        "orbit_class": {
            "orbit_class_type": "AMO",
            "orbit_class_description": "Near-Earth asteroid orbits similar to that of 1221 Amor",
            "orbit_class_range": "1.017 AU < q (perihelion) < 1.3 AU"
        }
    },
    "is_sentry_object": false
}